[{"OBJECT_NAME":"STARLINK-3415","OBJECT_ID":"2022-010S","EPOCH":"2026-03-09T20:53:05.188416","MEAN_MOTION":15.0883577,"ECCENTRICITY":0.00014672,"INCLINATION":53.2168,"RA_OF_ASC_NODE":278.2438,"ARG_OF_PERICENTER":97.8599,"MEAN_ANOMALY":262.256,"EPHEMERIS_TYPE":0,"CLASSIFICATION_TYPE":"U","NORAD_CAT_ID":51472,"ELEMENT_SET_NO":999,"REV_AT_EPOCH":22685,"BSTAR":-4.9356584e-5,"MEAN_MOTION_DOT":-1.073e-5,"MEAN_MOTION_DDOT":0},{"OBJECT_NAME":"RE","OBJECT_ID":"2012-048H","EPOCH":"2026-03-09T14:34:58.971936","MEAN_MOTION":15.18958187,"ECCENTRICITY":0.0110372,"INCLINATION":64.6561,"RA_OF_ASC_NODE":148.4253,"ARG_OF_PERICENTER":206.6471,"MEAN_ANOMALY":152.8958,"EPHEMERIS_TYPE":0,"CLASSIFICATION_TYPE":"U","NORAD_CAT_ID":38765,"ELEMENT_SET_NO":999,"REV_AT_EPOCH":10026,"BSTAR":0.00059519,"MEAN_MOTION_DOT":0.00014497,"MEAN_MOTION_DDOT":0}]
